<?xml version="1.0" encoding="UTF-8"?>
<gpx version="1.1" creator="Altiscope" xmlns="http://www.topografix.com/GPX/1/1" xmlns:alt="urn:altiscope:track:1"><trk><name>格式样例（虚构）</name><desc>非实测数据
包含估计、缺失 GPS、无坐标与未计时样本。</desc><type>cycling</type><extensions><alt:metadata type="object"><alt:activeSeconds missing="true"/><alt:altitudeReference type="string">MSL</alt:altitudeReference><alt:coordinateReference type="string">WGS84</alt:coordinateReference><alt:distanceM type="number">0.9629776428865461</alt:distanceM><alt:endedAt type="string">2026-10-02T12:00:03.125Z</alt:endedAt><alt:format type="string">altiscope.track</alt:format><alt:intervalStartedAt missing="true"/><alt:isDemo type="boolean">false</alt:isDemo><alt:legacyMotion type="array"></alt:legacyMotion><alt:name type="string">格式样例（虚构）</alt:name><alt:notes type="string">非实测数据
包含估计、缺失 GPS、无坐标与未计时样本。</alt:notes><alt:provenance missing="true"/><alt:recordType type="string">metadata</alt:recordType><alt:schemaVersion type="number">1</alt:schemaVersion><alt:segmentId type="number">2</alt:segmentId><alt:sessionId type="string">11111111-1111-4111-8111-111111111111</alt:sessionId><alt:startedAt type="string">2026-10-02T12:00:00.125Z</alt:startedAt><alt:state type="string">finished</alt:state><alt:travelMode type="string">cycling</alt:travelMode><alt:units type="object"><alt:acceleration type="string">m/s²</alt:acceleration><alt:altitude type="string">m</alt:altitude><alt:angle type="string">deg</alt:angle><alt:speed type="string">m/s</alt:speed></alt:units><alt:vectorFrame type="string">ENU</alt:vectorFrame></alt:metadata><alt:unpositionedSamples><alt:sample type="object"><alt:cumulativeDistanceM missing="true"/><alt:gps type="object"><alt:altitudeM missing="true"/><alt:coordinate missing="true"/><alt:courseDeg missing="true"/><alt:deviceHeadingDeg missing="true"/><alt:deviceHeadingReference missing="true"/><alt:horizontalAccuracyM missing="true"/><alt:observedAt missing="true"/><alt:source missing="true"/><alt:speedMps missing="true"/><alt:usableForRoute missing="true"/><alt:verticalAccuracyM missing="true"/></alt:gps><alt:id type="string">22222222-2222-4222-8222-222222222223</alt:id><alt:inertial type="object"><alt:accelerationENU missing="true"/><alt:altitudeM missing="true"/><alt:bearingDeg missing="true"/><alt:bearingReference missing="true"/><alt:bearingSource missing="true"/><alt:coordinate missing="true"/><alt:horizontalUncertaintyM missing="true"/><alt:lastCorrectionAt missing="true"/><alt:predictionAgeSeconds missing="true"/><alt:speedMps missing="true"/><alt:status type="string">uninitialized</alt:status><alt:velocityENU missing="true"/></alt:inertial><alt:rawLocations missing="true"/><alt:rawMotion type="array"></alt:rawMotion><alt:recordType type="string">sample</alt:recordType><alt:segmentId type="number">1</alt:segmentId><alt:sequence type="number">3</alt:sequence><alt:timestamp type="string">2026-10-02T12:00:02.125Z</alt:timestamp></alt:sample></alt:unpositionedSamples></extensions><trkseg><trkpt lat="30.0" lon="120.0"><ele>100.0</ele><time>2026-10-02T12:00:00.125Z</time><extensions><alt:positionSource>inertial</alt:positionSource><alt:sample type="object"><alt:cumulativeDistanceM missing="true"/><alt:gps type="object"><alt:altitudeM type="number">100</alt:altitudeM><alt:coordinate type="object"><alt:latitude type="number">30</alt:latitude><alt:longitude type="number">120</alt:longitude></alt:coordinate><alt:courseDeg missing="true"/><alt:deviceHeadingDeg missing="true"/><alt:deviceHeadingReference missing="true"/><alt:horizontalAccuracyM type="number">5</alt:horizontalAccuracyM><alt:observedAt type="string">2026-10-02T12:00:00.000Z</alt:observedAt><alt:source type="string">core_location</alt:source><alt:speedMps type="number">1</alt:speedMps><alt:usableForRoute missing="true"/><alt:verticalAccuracyM type="number">3</alt:verticalAccuracyM></alt:gps><alt:id type="string">22222222-2222-4222-8222-222222222221</alt:id><alt:inertial type="object"><alt:accelerationENU type="object"><alt:east type="number">0</alt:east><alt:north type="number">0</alt:north><alt:up type="number">0</alt:up></alt:accelerationENU><alt:altitudeM type="number">100</alt:altitudeM><alt:bearingDeg type="number">90</alt:bearingDeg><alt:bearingReference type="string">true_north</alt:bearingReference><alt:bearingSource type="string">previous_velocity</alt:bearingSource><alt:coordinate type="object"><alt:latitude type="number">30</alt:latitude><alt:longitude type="number">120</alt:longitude></alt:coordinate><alt:horizontalUncertaintyM missing="true"/><alt:lastCorrectionAt type="string">2026-10-02T12:00:00.000Z</alt:lastCorrectionAt><alt:predictionAgeSeconds type="number">0.125</alt:predictionAgeSeconds><alt:speedMps type="number">1</alt:speedMps><alt:status type="string">corrected</alt:status><alt:velocityENU type="object"><alt:east type="number">1</alt:east><alt:north type="number">0</alt:north><alt:up type="number">0</alt:up></alt:velocityENU></alt:inertial><alt:rawLocations missing="true"/><alt:rawMotion type="array"></alt:rawMotion><alt:recordType type="string">sample</alt:recordType><alt:segmentId type="number">0</alt:segmentId><alt:sequence type="number">1</alt:sequence><alt:timestamp type="string">2026-10-02T12:00:00.125Z</alt:timestamp></alt:sample></extensions></trkpt><trkpt lat="30.0" lon="120.00001"><ele>100.0</ele><time>2026-10-02T12:00:01.125Z</time><extensions><alt:positionSource>inertial</alt:positionSource><alt:sample type="object"><alt:cumulativeDistanceM missing="true"/><alt:gps type="object"><alt:altitudeM missing="true"/><alt:coordinate missing="true"/><alt:courseDeg missing="true"/><alt:deviceHeadingDeg missing="true"/><alt:deviceHeadingReference missing="true"/><alt:horizontalAccuracyM missing="true"/><alt:observedAt missing="true"/><alt:source missing="true"/><alt:speedMps missing="true"/><alt:usableForRoute missing="true"/><alt:verticalAccuracyM missing="true"/></alt:gps><alt:id type="string">22222222-2222-4222-8222-222222222222</alt:id><alt:inertial type="object"><alt:accelerationENU type="object"><alt:east type="number">0</alt:east><alt:north type="number">0</alt:north><alt:up type="number">0</alt:up></alt:accelerationENU><alt:altitudeM type="number">100</alt:altitudeM><alt:bearingDeg type="number">90</alt:bearingDeg><alt:bearingReference type="string">true_north</alt:bearingReference><alt:bearingSource type="string">previous_velocity</alt:bearingSource><alt:coordinate type="object"><alt:latitude type="number">30</alt:latitude><alt:longitude type="number">120.00001</alt:longitude></alt:coordinate><alt:horizontalUncertaintyM missing="true"/><alt:lastCorrectionAt type="string">2026-10-02T12:00:00.000Z</alt:lastCorrectionAt><alt:predictionAgeSeconds type="number">1.125</alt:predictionAgeSeconds><alt:speedMps type="number">1</alt:speedMps><alt:status type="string">predicted</alt:status><alt:velocityENU type="object"><alt:east type="number">1</alt:east><alt:north type="number">0</alt:north><alt:up type="number">0</alt:up></alt:velocityENU></alt:inertial><alt:rawLocations missing="true"/><alt:rawMotion type="array"></alt:rawMotion><alt:recordType type="string">sample</alt:recordType><alt:segmentId type="number">0</alt:segmentId><alt:sequence type="number">2</alt:sequence><alt:timestamp type="string">2026-10-02T12:00:01.125Z</alt:timestamp></alt:sample></extensions></trkpt></trkseg><trkseg><trkpt lat="30.001" lon="120.001"><extensions><alt:positionSource>observation</alt:positionSource><alt:sample type="object"><alt:cumulativeDistanceM missing="true"/><alt:gps type="object"><alt:altitudeM missing="true"/><alt:coordinate type="object"><alt:latitude type="number">30.001</alt:latitude><alt:longitude type="number">120.001</alt:longitude></alt:coordinate><alt:courseDeg missing="true"/><alt:deviceHeadingDeg missing="true"/><alt:deviceHeadingReference missing="true"/><alt:horizontalAccuracyM missing="true"/><alt:observedAt missing="true"/><alt:source type="string">external_gpx_unknown</alt:source><alt:speedMps missing="true"/><alt:usableForRoute missing="true"/><alt:verticalAccuracyM missing="true"/></alt:gps><alt:id type="string">22222222-2222-4222-8222-222222222224</alt:id><alt:inertial type="object"><alt:accelerationENU missing="true"/><alt:altitudeM missing="true"/><alt:bearingDeg missing="true"/><alt:bearingReference missing="true"/><alt:bearingSource missing="true"/><alt:coordinate missing="true"/><alt:horizontalUncertaintyM missing="true"/><alt:lastCorrectionAt missing="true"/><alt:predictionAgeSeconds missing="true"/><alt:speedMps missing="true"/><alt:status type="string">uninitialized</alt:status><alt:velocityENU missing="true"/></alt:inertial><alt:rawLocations missing="true"/><alt:rawMotion type="array"></alt:rawMotion><alt:recordType type="string">sample</alt:recordType><alt:segmentId type="number">2</alt:segmentId><alt:sequence type="number">4</alt:sequence><alt:timestamp missing="true"/></alt:sample></extensions></trkpt></trkseg></trk></gpx>